start=new Date('2022-08-22T00:00:00.000Z').valueOf();
sats=[{"TLE_LINE1":"1 53404U 22097S   22233.91667824 -.00036560  00000-0 -25646-3 0  9999","APOAPSIS":"350.537","MEAN_ANOMALY":"111.7655","RCS_SIZE":"LARGE","DECAY_DATE":null,"OBJECT_ID":"2022-097S","FILE":"3542671","OBJECT_NAME":"STARLINK-4509","CLASSIFICATION_TYPE":"U","PERIOD":"91.529","ECCENTRICITY":"0.00014370","SEMIMAJOR_AXIS":"6727.705","GP_ID":"210694907","MEAN_MOTION_DOT":"-0.00036560","LAUNCH_DATE":"2022-08-10","MEAN_ELEMENT_THEORY":"SGP4","REV_AT_EPOCH":"130","CENTER_NAME":"EARTH","ELEMENT_SET_NO":"999","INCLINATION":"53.2196","EPHEMERIS_TYPE":"0","REF_FRAME":"TEME","ARG_OF_PERICENTER":"81.1813","PERIAPSIS":"348.603","TIME_SYSTEM":"UTC","EPOCH":"2022-08-21T22:00:00.999936","BSTAR":"-0.00025646000000","OBJECT_TYPE":"PAYLOAD","NORAD_CAT_ID":"53404","TLE_LINE2":"2 53404  53.2196 190.0328 0001437  81.1813 111.7655 15.73266761  1308","MEAN_MOTION":"15.73266761","COUNTRY_CODE":"US","MEAN_MOTION_DDOT":"0.0000000000000","SITE":"AFETR","RA_OF_ASC_NODE":"190.0328"},{"CLASSIFICATION_TYPE":"U","OBJECT_NAME":"STARLINK-4510","FILE":"3542671","OBJECT_ID":"2022-097T","PERIOD":"91.535","TLE_LINE1":"1 53405U 22097T   22233.91667824  .00042529  00000-0  30631-3 0  9990","MEAN_ANOMALY":"108.4915","APOAPSIS":"350.751","DECAY_DATE":null,"RCS_SIZE":"MEDIUM","ELEMENT_SET_NO":"999","REV_AT_EPOCH":"130","CENTER_NAME":"EARTH","MEAN_ELEMENT_THEORY":"SGP4","INCLINATION":"53.2199","SEMIMAJOR_AXIS":"6727.984","GP_ID":"210694623","ECCENTRICITY":"0.00013400","LAUNCH_DATE":"2022-08-10","MEAN_MOTION_DOT":"0.00042529","PERIAPSIS":"348.948","ARG_OF_PERICENTER":"83.3387","TIME_SYSTEM":"UTC","EPHEMERIS_TYPE":"0","REF_FRAME":"TEME","COUNTRY_CODE":"US","MEAN_MOTION":"15.73168752","RA_OF_ASC_NODE":"190.0351","MEAN_MOTION_DDOT":"0.0000000000000","SITE":"AFETR","OBJECT_TYPE":"PAYLOAD","BSTAR":"0.00030631000000","EPOCH":"2022-08-21T22:00:00.999936","TLE_LINE2":"2 53405  53.2199 190.0351 0001340  83.3387 108.4915 15.73168752  1304","NORAD_CAT_ID":"53405"},{"TIME_SYSTEM":"UTC","ARG_OF_PERICENTER":"78.7771","PERIAPSIS":"349.016","REF_FRAME":"TEME","EPHEMERIS_TYPE":"0","SITE":"AFETR","MEAN_MOTION_DDOT":"0.0000000000000","RA_OF_ASC_NODE":"190.0255","MEAN_MOTION":"15.73174933","COUNTRY_CODE":"US","NORAD_CAT_ID":"53406","TLE_LINE2":"2 53406  53.2198 190.0255 0001212  78.7771 117.8932 15.73174933  1301","EPOCH":"2022-08-21T22:00:00.999936","OBJECT_TYPE":"PAYLOAD","BSTAR":"0.00013832000000","PERIOD":"91.535","FILE":"3542671","OBJECT_ID":"2022-097U","CLASSIFICATION_TYPE":"U","OBJECT_NAME":"STARLINK-4533","RCS_SIZE":"LARGE","DECAY_DATE":null,"APOAPSIS":"350.647","TLE_LINE1":"1 53406U 22097U   22233.91667824  .00018815  00000-0  13832-3 0  9996","MEAN_ANOMALY":"117.8932","INCLINATION":"53.2198","REV_AT_EPOCH":"130","CENTER_NAME":"EARTH","MEAN_ELEMENT_THEORY":"SGP4","ELEMENT_SET_NO":"999","MEAN_MOTION_DOT":"0.00018815","LAUNCH_DATE":"2022-08-10","ECCENTRICITY":"0.00012120","GP_ID":"210694350","SEMIMAJOR_AXIS":"6727.967"},{"DECAY_DATE":null,"RCS_SIZE":"LARGE","TLE_LINE1":"1 53407U 22097V   22233.91667824 -.00069534  00000-0 -49358-3 0  9995","APOAPSIS":"350.528","MEAN_ANOMALY":"113.4759","PERIOD":"91.529","OBJECT_NAME":"STARLINK-4537","CLASSIFICATION_TYPE":"U","OBJECT_ID":"2022-097V","FILE":"3542671","LAUNCH_DATE":"2022-08-10","MEAN_MOTION_DOT":"-0.00069534","GP_ID":"210694485","SEMIMAJOR_AXIS":"6727.690","ECCENTRICITY":"0.00014470","INCLINATION":"53.2204","ELEMENT_SET_NO":"999","REV_AT_EPOCH":"130","MEAN_ELEMENT_THEORY":"SGP4","CENTER_NAME":"EARTH","REF_FRAME":"TEME","EPHEMERIS_TYPE":"0","TIME_SYSTEM":"UTC","PERIAPSIS":"348.581","ARG_OF_PERICENTER":"78.9436","TLE_LINE2":"2 53407  53.2204 190.0355 0001447  78.9436 113.4759 15.73271994  1305","NORAD_CAT_ID":"53407","BSTAR":"-0.00049358000000","OBJECT_TYPE":"PAYLOAD","EPOCH":"2022-08-21T22:00:00.999936","RA_OF_ASC_NODE":"190.0355","SITE":"AFETR","MEAN_MOTION_DDOT":"0.0000000000000","COUNTRY_CODE":"US","MEAN_MOTION":"15.73271994"},{"GP_ID":"210695058","SEMIMAJOR_AXIS":"6727.944","ECCENTRICITY":"0.00011560","LAUNCH_DATE":"2022-08-10","MEAN_MOTION_DOT":"0.00041309","ELEMENT_SET_NO":"999","REV_AT_EPOCH":"130","CENTER_NAME":"EARTH","MEAN_ELEMENT_THEORY":"SGP4","INCLINATION":"53.2203","TLE_LINE1":"1 53408U 22097W   22233.91667824  .00041309  00000-0  29752-3 0  9990","MEAN_ANOMALY":"129.1323","APOAPSIS":"350.587","DECAY_DATE":null,"RCS_SIZE":"LARGE","CLASSIFICATION_TYPE":"U","OBJECT_NAME":"STARLINK-4491","FILE":"3542671","OBJECT_ID":"2022-097W","PERIOD":"91.534","OBJECT_TYPE":"PAYLOAD","BSTAR":"0.00029752000000","EPOCH":"2022-08-21T22:00:00.999936","TLE_LINE2":"2 53408  53.2203 190.0312 0001156  65.6806 129.1323 15.73182879  1303","NORAD_CAT_ID":"53408","COUNTRY_CODE":"US","MEAN_MOTION":"15.73182879","RA_OF_ASC_NODE":"190.0312","SITE":"AFETR","MEAN_MOTION_DDOT":"0.0000000000000","EPHEMERIS_TYPE":"0","REF_FRAME":"TEME","PERIAPSIS":"349.031","ARG_OF_PERICENTER":"65.6806","TIME_SYSTEM":"UTC"},{"MEAN_MOTION":"15.73204020","COUNTRY_CODE":"US","MEAN_MOTION_DDOT":"0.0000000000000","SITE":"AFETR","RA_OF_ASC_NODE":"190.0309","EPOCH":"2022-08-21T22:00:00.999936","OBJECT_TYPE":"PAYLOAD","BSTAR":"0.00028445000000","NORAD_CAT_ID":"53409","TLE_LINE2":"2 53409  53.2195 190.0309 0001028  76.4294 117.1887 15.73204020  1304","ARG_OF_PERICENTER":"76.4294","PERIAPSIS":"349.057","TIME_SYSTEM":"UTC","EPHEMERIS_TYPE":"0","REF_FRAME":"TEME","REV_AT_EPOCH":"130","MEAN_ELEMENT_THEORY":"SGP4","CENTER_NAME":"EARTH","ELEMENT_SET_NO":"999","INCLINATION":"53.2195","ECCENTRICITY":"0.00010280","GP_ID":"210694210","SEMIMAJOR_AXIS":"6727.884","MEAN_MOTION_DOT":"0.00039495","LAUNCH_DATE":"2022-08-10","FILE":"3542671","OBJECT_ID":"2022-097X","CLASSIFICATION_TYPE":"U","OBJECT_NAME":"STARLINK-4490","PERIOD":"91.533","MEAN_ANOMALY":"117.1887","TLE_LINE1":"1 53409U 22097X   22233.91667824  .00039495  00000-0  28445-3 0  9992","APOAPSIS":"350.440","RCS_SIZE":"LARGE","DECAY_DATE":null},{"TIME_SYSTEM":"UTC","PERIAPSIS":"348.958","ARG_OF_PERICENTER":"77.4973","REF_FRAME":"TEME","EPHEMERIS_TYPE":"0","RA_OF_ASC_NODE":"190.0301","MEAN_MOTION_DDOT":"0.0000000000000","SITE":"AFETR","COUNTRY_CODE":"US","MEAN_MOTION":"15.73176784","TLE_LINE2":"2 53410  53.2204 190.0301 0001290  77.4973 117.9191 15.73176784  1306","NORAD_CAT_ID":"53410","OBJECT_TYPE":"PAYLOAD","BSTAR":"0.00029059000000","EPOCH":"2022-08-21T22:00:00.999936","PERIOD":"91.535","CLASSIFICATION_TYPE":"U","OBJECT_NAME":"STARLINK-4492","FILE":"3542671","OBJECT_ID":"2022-097Y","DECAY_DATE":null,"RCS_SIZE":"LARGE","TLE_LINE1":"1 53410U 22097Y   22233.91667824  .00040317  00000-0  29059-3 0  9991","APOAPSIS":"350.694","MEAN_ANOMALY":"117.9191","INCLINATION":"53.2204","ELEMENT_SET_NO":"999","REV_AT_EPOCH":"130","CENTER_NAME":"EARTH","MEAN_ELEMENT_THEORY":"SGP4","LAUNCH_DATE":"2022-08-10","MEAN_MOTION_DOT":"0.00040317","GP_ID":"210694765","SEMIMAJOR_AXIS":"6727.961","ECCENTRICITY":"0.00012900"},{"EPOCH":"2022-08-21T22:00:00.999936","OBJECT_TYPE":"PAYLOAD","BSTAR":"0.00029958000000","NORAD_CAT_ID":"53411","TLE_LINE2":"2 53411  53.2204 190.0323 0001286  90.3274 103.8809 15.73166145  1304","MEAN_MOTION":"15.73166145","COUNTRY_CODE":"US","MEAN_MOTION_DDOT":"0.0000000000000","SITE":"AFETR","RA_OF_ASC_NODE":"190.0323","EPHEMERIS_TYPE":"0","REF_FRAME":"TEME","ARG_OF_PERICENTER":"90.3274","PERIAPSIS":"348.991","TIME_SYSTEM":"UTC","ECCENTRICITY":"0.00012860","SEMIMAJOR_AXIS":"6727.992","GP_ID":"210694072","MEAN_MOTION_DOT":"0.00041571","LAUNCH_DATE":"2022-08-10","REV_AT_EPOCH":"130","CENTER_NAME":"EARTH","MEAN_ELEMENT_THEORY":"SGP4","ELEMENT_SET_NO":"999","INCLINATION":"53.2204","TLE_LINE1":"1 53411U 22097Z   22233.91667824  .00041571  00000-0  29958-3 0  9993","MEAN_ANOMALY":"103.8809","APOAPSIS":"350.722","RCS_SIZE":"LARGE","DECAY_DATE":null,"FILE":"3542671","OBJECT_ID":"2022-097Z","CLASSIFICATION_TYPE":"U","OBJECT_NAME":"STARLINK-4497","PERIOD":"91.535"},{"BSTAR":"0.00026822000000","OBJECT_TYPE":"PAYLOAD","EPOCH":"2022-08-21T22:00:00.999936","TLE_LINE2":"2 53412  53.2203 190.0261 0000879  79.7909 117.4469 15.73201328  1304","NORAD_CAT_ID":"53412","COUNTRY_CODE":"US","MEAN_MOTION":"15.73201328","RA_OF_ASC_NODE":"190.0261","MEAN_MOTION_DDOT":"0.0000000000000","SITE":"AFETR","EPHEMERIS_TYPE":"0","REF_FRAME":"TEME","PERIAPSIS":"349.165","ARG_OF_PERICENTER":"79.7909","TIME_SYSTEM":"UTC","GP_ID":"210694908","SEMIMAJOR_AXIS":"6727.891","ECCENTRICITY":"0.00008790","LAUNCH_DATE":"2022-08-10","MEAN_MOTION_DOT":"0.00037191","ELEMENT_SET_NO":"999","REV_AT_EPOCH":"130","CENTER_NAME":"EARTH","MEAN_ELEMENT_THEORY":"SGP4","INCLINATION":"53.2203","TLE_LINE1":"1 53412U 22097AA  22233.91667824  .00037191  00000-0  26822-3 0  9994","APOAPSIS":"350.348","MEAN_ANOMALY":"117.4469","DECAY_DATE":null,"RCS_SIZE":"LARGE","OBJECT_NAME":"STARLINK-4496","CLASSIFICATION_TYPE":"U","OBJECT_ID":"2022-097AA","FILE":"3542671","PERIOD":"91.533"},{"DECAY_DATE":null,"RCS_SIZE":"LARGE","TLE_LINE1":"1 53413U 22097AB  22233.91667824  .00041803  00000-0  30111-3 0  9996","MEAN_ANOMALY":"120.4633","APOAPSIS":"350.508","PERIOD":"91.535","CLASSIFICATION_TYPE":"U","OBJECT_NAME":"STARLINK-4500","FILE":"3542671","OBJECT_ID":"2022-097AB","LAUNCH_DATE":"2022-08-10","MEAN_MOTION_DOT":"0.00041803","SEMIMAJOR_AXIS":"6727.967","GP_ID":"210694624","ECCENTRICITY":"0.00010050","INCLINATION":"53.2201","ELEMENT_SET_NO":"999","REV_AT_EPOCH":"130","CENTER_NAME":"EARTH","MEAN_ELEMENT_THEORY":"SGP4","REF_FRAME":"TEME","EPHEMERIS_TYPE":"0","TIME_SYSTEM":"UTC","PERIAPSIS":"349.156","ARG_OF_PERICENTER":"75.5406","TLE_LINE2":"2 53413  53.2201 190.0279 0001005  75.5406 120.4633 15.73174886  1305","NORAD_CAT_ID":"53413","OBJECT_TYPE":"PAYLOAD","BSTAR":"0.00030111000000","EPOCH":"2022-08-21T22:00:00.999936","RA_OF_ASC_NODE":"190.0279","SITE":"AFETR","MEAN_MOTION_DDOT":"0.0000000000000","COUNTRY_CODE":"US","MEAN_MOTION":"15.73174886"}];
